start=new Date('2021-10-04T00:00:00.000Z').valueOf();
sats=[{"GP_ID":"186103571","APOAPSIS":"547.844","RA_OF_ASC_NODE":"256.5271","ARG_OF_PERICENTER":"47.5771","DECAY_DATE":null,"MEAN_MOTION_DOT":"0.00000018","LAUNCH_DATE":"2021-05-09","TLE_LINE2":"2 48466  53.0652 256.5271 0000914  47.5771 312.5296 15.06400796 22587","PERIAPSIS":"546.578","MEAN_ELEMENT_THEORY":"SGP4","TIME_SYSTEM":"UTC","INCLINATION":"53.0652","BSTAR":"0.00002006700000","MEAN_MOTION_DDOT":"0.0000000000000","CLASSIFICATION_TYPE":"U","REV_AT_EPOCH":"2258","RCS_SIZE":"LARGE","OBJECT_NAME":"STARLINK-2687","EPHEMERIS_TYPE":"0","COUNTRY_CODE":"US","ECCENTRICITY":"0.00009140","CENTER_NAME":"EARTH","SITE":"AFETR","PERIOD":"95.592","OBJECT_TYPE":"PAYLOAD","NORAD_CAT_ID":"48466","MEAN_ANOMALY":"312.5296","FILE":"3142499","TLE_LINE1":"1 48466U 21040AQ  21276.36518764  .00000018  00000-0  20067-4 0  9991","MEAN_MOTION":"15.06400796","SEMIMAJOR_AXIS":"6925.346","REF_FRAME":"TEME","ELEMENT_SET_NO":"999","OBJECT_ID":"2021-040AQ","EPOCH":"2021-10-03T08:45:52.212096"},{"EPOCH":"2021-10-03T15:45:11.846304","OBJECT_ID":"2021-040AR","REF_FRAME":"TEME","ELEMENT_SET_NO":"999","TLE_LINE1":"1 48467U 21040AR  21276.65638711  .00000044  00000-0  21842-4 0  9990","FILE":"3143202","SEMIMAJOR_AXIS":"6925.378","MEAN_MOTION":"15.06390274","MEAN_ANOMALY":"293.9064","PERIOD":"95.593","CENTER_NAME":"EARTH","SITE":"AFETR","NORAD_CAT_ID":"48467","OBJECT_TYPE":"PAYLOAD","ECCENTRICITY":"0.00011470","EPHEMERIS_TYPE":"0","COUNTRY_CODE":"US","OBJECT_NAME":"STARLINK-2659","REV_AT_EPOCH":"2262","RCS_SIZE":"LARGE","CLASSIFICATION_TYPE":"U","INCLINATION":"53.0555","TIME_SYSTEM":"UTC","BSTAR":"0.00002184200000","MEAN_MOTION_DDOT":"0.0000000000000","PERIAPSIS":"546.449","MEAN_ELEMENT_THEORY":"SGP4","TLE_LINE2":"2 48467  53.0555 255.2450 0001147  66.2046 293.9064 15.06390274 22626","LAUNCH_DATE":"2021-05-09","MEAN_MOTION_DOT":"0.00000044","DECAY_DATE":null,"RA_OF_ASC_NODE":"255.2450","APOAPSIS":"548.038","ARG_OF_PERICENTER":"66.2046","GP_ID":"186143267"},{"ECCENTRICITY":"0.00012060","OBJECT_TYPE":"PAYLOAD","NORAD_CAT_ID":"48468","SITE":"AFETR","CENTER_NAME":"EARTH","PERIOD":"95.592","RCS_SIZE":"LARGE","REV_AT_EPOCH":"2262","OBJECT_NAME":"STARLINK-2685","EPHEMERIS_TYPE":"0","COUNTRY_CODE":"US","ELEMENT_SET_NO":"999","REF_FRAME":"TEME","OBJECT_ID":"2021-040AS","EPOCH":"2021-10-03T15:18:38.796192","MEAN_ANOMALY":"305.3719","MEAN_MOTION":"15.06399389","SEMIMAJOR_AXIS":"6925.350","TLE_LINE1":"1 48468U 21040AS  21276.63794903  .00000375  00000-0  44089-4 0  9990","FILE":"3143202","DECAY_DATE":null,"GP_ID":"186143919","ARG_OF_PERICENTER":"54.7383","RA_OF_ASC_NODE":"255.3222","APOAPSIS":"548.051","BSTAR":"0.00004408900000","MEAN_MOTION_DDOT":"0.0000000000000","TIME_SYSTEM":"UTC","INCLINATION":"53.0548","CLASSIFICATION_TYPE":"U","MEAN_MOTION_DOT":"0.00000375","TLE_LINE2":"2 48468  53.0548 255.3222 0001206  54.7383 305.3719 15.06399389 22620","LAUNCH_DATE":"2021-05-09","MEAN_ELEMENT_THEORY":"SGP4","PERIAPSIS":"546.380"},{"ECCENTRICITY":"0.00011770","CENTER_NAME":"EARTH","SITE":"AFETR","PERIOD":"95.592","OBJECT_TYPE":"PAYLOAD","NORAD_CAT_ID":"48469","REV_AT_EPOCH":"2262","RCS_SIZE":"LARGE","OBJECT_NAME":"STARLINK-2661","COUNTRY_CODE":"US","EPHEMERIS_TYPE":"0","REF_FRAME":"TEME","ELEMENT_SET_NO":"999","OBJECT_ID":"2021-040AT","EPOCH":"2021-10-03T15:39:52.401312","MEAN_ANOMALY":"307.3099","FILE":"3143202","TLE_LINE1":"1 48469U 21040AT  21276.65268983  .00000287  00000-0  38143-4 0  9993","MEAN_MOTION":"15.06400829","SEMIMAJOR_AXIS":"6925.346","DECAY_DATE":null,"GP_ID":"186143375","APOAPSIS":"548.026","RA_OF_ASC_NODE":"255.2670","ARG_OF_PERICENTER":"52.7998","TIME_SYSTEM":"UTC","INCLINATION":"53.0562","BSTAR":"0.00003814300000","MEAN_MOTION_DDOT":"0.0000000000000","CLASSIFICATION_TYPE":"U","MEAN_MOTION_DOT":"0.00000287","LAUNCH_DATE":"2021-05-09","TLE_LINE2":"2 48469  53.0562 255.2670 0001177  52.7998 307.3099 15.06400829 22625","PERIAPSIS":"546.396","MEAN_ELEMENT_THEORY":"SGP4"},{"CLASSIFICATION_TYPE":"U","MEAN_MOTION_DDOT":"0.0000000000000","BSTAR":"0.00000743860000","INCLINATION":"53.0547","TIME_SYSTEM":"UTC","MEAN_ELEMENT_THEORY":"SGP4","PERIAPSIS":"546.345","TLE_LINE2":"2 48470  53.0547 255.2742 0001292  34.9994 325.1080 15.06391497 22613","LAUNCH_DATE":"2021-05-09","MEAN_MOTION_DOT":"-0.00000171","DECAY_DATE":null,"ARG_OF_PERICENTER":"34.9994","RA_OF_ASC_NODE":"255.2742","APOAPSIS":"548.134","GP_ID":"186143796","EPOCH":"2021-10-03T15:34:34.436352","OBJECT_ID":"2021-040AU","ELEMENT_SET_NO":"999","REF_FRAME":"TEME","SEMIMAJOR_AXIS":"6925.375","MEAN_MOTION":"15.06391497","TLE_LINE1":"1 48470U 21040AU  21276.64900968 -.00000171  00000-0  74386-5 0  9993","FILE":"3143202","MEAN_ANOMALY":"325.1080","NORAD_CAT_ID":"48470","OBJECT_TYPE":"PAYLOAD","PERIOD":"95.593","SITE":"AFETR","CENTER_NAME":"EARTH","ECCENTRICITY":"0.00012920","COUNTRY_CODE":"US","EPHEMERIS_TYPE":"0","OBJECT_NAME":"STARLINK-2675","RCS_SIZE":"LARGE","REV_AT_EPOCH":"2261"},{"OBJECT_ID":"2021-040AV","EPOCH":"2021-10-03T15:23:57.992352","ELEMENT_SET_NO":"999","REF_FRAME":"TEME","MEAN_MOTION":"15.06389731","SEMIMAJOR_AXIS":"6925.380","TLE_LINE1":"1 48471U 21040AV  21276.64164343  .00000171  00000-0  30356-4 0  9990","FILE":"3143202","MEAN_ANOMALY":"295.6515","OBJECT_TYPE":"PAYLOAD","NORAD_CAT_ID":"48471","SITE":"AFETR","CENTER_NAME":"EARTH","PERIOD":"95.593","ECCENTRICITY":"0.00012320","OBJECT_NAME":"STARLINK-2684","EPHEMERIS_TYPE":"0","COUNTRY_CODE":"US","RCS_SIZE":"LARGE","REV_AT_EPOCH":"2261","CLASSIFICATION_TYPE":"U","MEAN_MOTION_DDOT":"0.0000000000000","BSTAR":"0.00003035600000","TIME_SYSTEM":"UTC","INCLINATION":"53.0559","MEAN_ELEMENT_THEORY":"SGP4","PERIAPSIS":"546.392","MEAN_MOTION_DOT":"0.00000171","TLE_LINE2":"2 48471  53.0559 255.3146 0001232  64.4601 295.6515 15.06389731 22615","LAUNCH_DATE":"2021-05-09","DECAY_DATE":null,"ARG_OF_PERICENTER":"64.4601","RA_OF_ASC_NODE":"255.3146","APOAPSIS":"548.098","GP_ID":"186143253"},{"MEAN_ANOMALY":"293.7065","FILE":"3142499","TLE_LINE1":"1 48472U 21040AW  21276.35781950 -.00000051  00000-0  15469-4 0  9994","MEAN_MOTION":"15.06394017","SEMIMAJOR_AXIS":"6925.367","REF_FRAME":"TEME","ELEMENT_SET_NO":"999","OBJECT_ID":"2021-040AW","EPOCH":"2021-10-03T08:35:15.604800","REV_AT_EPOCH":"2256","RCS_SIZE":"LARGE","OBJECT_NAME":"STARLINK-2722","COUNTRY_CODE":"US","EPHEMERIS_TYPE":"0","ECCENTRICITY":"0.00010880","CENTER_NAME":"EARTH","SITE":"AFETR","PERIOD":"95.593","OBJECT_TYPE":"PAYLOAD","NORAD_CAT_ID":"48472","MEAN_MOTION_DOT":"-0.00000051","LAUNCH_DATE":"2021-05-09","TLE_LINE2":"2 48472  53.0485 256.6129 0001088  66.4038 293.7065 15.06394017 22560","PERIAPSIS":"546.478","MEAN_ELEMENT_THEORY":"SGP4","TIME_SYSTEM":"UTC","INCLINATION":"53.0485","MEAN_MOTION_DDOT":"0.0000000000000","BSTAR":"0.00001546900000","CLASSIFICATION_TYPE":"U","GP_ID":"186103355","APOAPSIS":"547.985","RA_OF_ASC_NODE":"256.6129","ARG_OF_PERICENTER":"66.4038","DECAY_DATE":null},{"CLASSIFICATION_TYPE":"U","BSTAR":"-0.00001087800000","MEAN_MOTION_DDOT":"0.0000000000000","INCLINATION":"53.0565","TIME_SYSTEM":"UTC","MEAN_ELEMENT_THEORY":"SGP4","PERIAPSIS":"546.346","LAUNCH_DATE":"2021-05-09","TLE_LINE2":"2 48473  53.0565 255.2364 0001303  47.6026 312.5073 15.06388655 22610","MEAN_MOTION_DOT":"-0.00000443","DECAY_DATE":null,"ARG_OF_PERICENTER":"47.6026","APOAPSIS":"548.151","RA_OF_ASC_NODE":"255.2364","GP_ID":"186143688","EPOCH":"2021-10-03T15:50:30.384096","OBJECT_ID":"2021-040AX","ELEMENT_SET_NO":"999","REF_FRAME":"TEME","SEMIMAJOR_AXIS":"6925.383","MEAN_MOTION":"15.06388655","FILE":"3143202","TLE_LINE1":"1 48473U 21040AX  21276.66007389 -.00000443  00000-0 -10878-4 0  9991","MEAN_ANOMALY":"312.5073","NORAD_CAT_ID":"48473","OBJECT_TYPE":"PAYLOAD","PERIOD":"95.593","SITE":"AFETR","CENTER_NAME":"EARTH","ECCENTRICITY":"0.00013030","COUNTRY_CODE":"US","EPHEMERIS_TYPE":"0","OBJECT_NAME":"STARLINK-2658","RCS_SIZE":"LARGE","REV_AT_EPOCH":"2261"},{"MEAN_ANOMALY":"311.7009","TLE_LINE1":"1 48474U 21040AY  21276.36150291 -.00001939  00000-0 -11139-3 0  9991","FILE":"3142499","MEAN_MOTION":"15.06391693","SEMIMAJOR_AXIS":"6925.374","REF_FRAME":"TEME","ELEMENT_SET_NO":"999","OBJECT_ID":"2021-040AY","EPOCH":"2021-10-03T08:40:33.851424","REV_AT_EPOCH":"2256","RCS_SIZE":"LARGE","OBJECT_NAME":"STARLINK-2697","COUNTRY_CODE":"US","EPHEMERIS_TYPE":"0","ECCENTRICITY":"0.00007120","SITE":"AFETR","CENTER_NAME":"EARTH","PERIOD":"95.593","OBJECT_TYPE":"PAYLOAD","NORAD_CAT_ID":"48474","MEAN_MOTION_DOT":"-0.00001939","TLE_LINE2":"2 48474  53.0463 256.6043 0000712  48.4040 311.7009 15.06391693 22565","LAUNCH_DATE":"2021-05-09","PERIAPSIS":"546.746","MEAN_ELEMENT_THEORY":"SGP4","TIME_SYSTEM":"UTC","INCLINATION":"53.0463","MEAN_MOTION_DDOT":"0.0000000000000","BSTAR":"-0.00011139000000","CLASSIFICATION_TYPE":"U","GP_ID":"186103572","APOAPSIS":"547.732","RA_OF_ASC_NODE":"256.6043","ARG_OF_PERICENTER":"48.4040","DECAY_DATE":null},{"RCS_SIZE":"LARGE","REV_AT_EPOCH":"2261","COUNTRY_CODE":"US","EPHEMERIS_TYPE":"0","OBJECT_NAME":"STARLINK-2619","ECCENTRICITY":"0.00009030","NORAD_CAT_ID":"48475","OBJECT_TYPE":"PAYLOAD","PERIOD":"95.593","CENTER_NAME":"EARTH","SITE":"AFETR","MEAN_ANOMALY":"296.0559","SEMIMAJOR_AXIS":"6925.373","MEAN_MOTION":"15.06392158","FILE":"3143202","TLE_LINE1":"1 48475U 21040AZ  21276.66375453 -.00001594  00000-0 -88160-4 0  9990","ELEMENT_SET_NO":"999","REF_FRAME":"TEME","EPOCH":"2021-10-03T15:55:48.391392","OBJECT_ID":"2021-040AZ","GP_ID":"186143268","ARG_OF_PERICENTER":"64.0523","RA_OF_ASC_NODE":"255.2114","APOAPSIS":"547.863","DECAY_DATE":null,"LAUNCH_DATE":"2021-05-09","TLE_LINE2":"2 48475  53.0554 255.2114 0000903  64.0523 296.0559 15.06392158 22611","MEAN_MOTION_DOT":"-0.00001594","MEAN_ELEMENT_THEORY":"SGP4","PERIAPSIS":"546.612","MEAN_MOTION_DDOT":"0.0000000000000","BSTAR":"-0.00008816000000","INCLINATION":"53.0554","TIME_SYSTEM":"UTC","CLASSIFICATION_TYPE":"U"}];
